{
  "norad_id": 61059,
  "name": "STARLINK-11154 [DTC]",
  "history": [
    {
      "epoch": "2026-03-28T18:40:38.576064Z",
      "apogee_km": 360.61116835365556,
      "perigee_km": 358.94986741044795,
      "latitude_deg": -2.5133520165203053e-05,
      "longitude_deg": 111.05305896500806,
      "height_km": 359.8982691594339,
      "semi_major_axis_km": 6737.9175178820515,
      "eccentricity": 0.00012328,
      "inclination_deg": 53.1604,
      "raan_deg": 217.4076,
      "arg_perigee_deg": 343.8235,
      "mean_anomaly_deg": 16.2743,
      "mean_motion_rev_day": 15.69691211
    }
  ]
}